ONEWEB-0427             
1 50499U 21132AG  24355.54390109 -.00000118  00000+0 -33216-3 0  9995
2 50499  87.9107  83.6089 0002052 105.3587 254.7771 13.18686729149966
ONEWEB-0429             
1 50500U 21132AH  24355.53125819 -.00000138  00000+0 -38253-3 0  9999
2 50500  87.9113  83.6289 0001553 102.8474 257.2832 13.18686176149939
ONEWEB-0430             
1 50501U 21132AJ  24355.21668280  .00000009  00000+0 -91085-5 0  9999
2 50501  87.9111  83.6899 0001630 116.5640 243.5659 13.18684597149938
ONEWEB-0432             
1 50502U 21132AK  24355.55180956  .00000043  00000+0  77226-4 0  9993
2 50502  87.9107  83.6138 0002599 119.8738 240.2653 13.18684963149934
ONEWEB-0440             
1 50503U 21132AL  24355.53915727  .00000024  00000+0  26941-4 0  9991
2 50503  87.9110  83.6106 0001552  89.6906 270.4404 13.18684288149921
ONEWEB-0450             
1 50504U 21132AM  24355.53298186 -.00000165  00000+0 -45145-3 0  9999
2 50504  87.9108  83.6404 0001448 108.8311 251.2978 13.18688922149953
ONEWEB-0410             
1 51622U 22012A   24355.59023245  .00000060  00000+0  12228-3 0  9995
2 51622  87.9097 114.1412 0003017  94.0241 266.1235 13.17647076142119
ONEWEB-0411             
1 51623U 22012B   24355.50033015  .00000387  00000+0  10712-2 0  9990
2 51623  87.8898 144.5537 0001390 124.9563 235.1695 13.10369411138089
